STARLINK-30069          
1 56834U 23079M   26067.48212902 -.00002416  00000+0 -80472-4 0  9995
2 56834  42.9986 110.4464 0000469 272.6695  87.4103 15.26726881152740
STARLINK-35863          
1 67170U 25303H   26068.04653400  .00052237  00000+0  18938-2 0  9997
2 67170  42.9985 314.6176 0001501 262.5934  97.4747 15.27589320 12638
